{
  "type": "FeatureCollection",
  "features": [
    {
      "type": "Feature",
      "properties": {
        "norad_id": 30405,
        "name": "FENGYUN 1C DEB",
        "group": "fengyun-1c-debris",
        "lat": 80.21580705546126,
        "lon": 25.604073185895626,
        "alt_km": 761.0121067446662,
        "timestamp": "2025-12-21T09:37:22.930851+00:00",
        "meta_object_name": "FENGYUN 1C DEB",
        "meta_object_id": "1999-025ADU",
        "meta_epoch": "2025-12-20T11:59:31.679808",
        "meta_mean_motion": 14.28975784,
        "meta_eccentricity": 0.0051098,
        "meta_inclination": 98.7941,
        "meta_ra_of_asc_node": 88.5508,
        "meta_arg_of_pericenter": 131.7896,
        "meta_mean_anomaly": 0.4402,
        "meta_ephemeris_type": 0,
        "meta_classification_type": "U",
        "meta_norad_cat_id": 30405,
        "meta_element_set_no": 999,
        "meta_rev_at_epoch": 97506,
        "meta_bstar": 0.0010577,
        "meta_mean_motion_dot": 2.668e-05,
        "meta_mean_motion_ddot": 0,
        "tle_line1": "1 30405U 99025ADU 25354.49967222  .00002668  00000+0  10577-2 0  9990",
        "tle_line2": "2 30405  98.7941  88.5508 0051098 131.7896   0.4402 14.28975784975066"
      },
      "geometry": {
        "type": "Point",
        "coordinates": [
          25.604073185895626,
          80.21580705546126
        ]
      }
    },
    {
      "type": "Feature",
      "properties": {
        "norad_id": 30406,
        "name": "FENGYUN 1C DEB",
        "group": "fengyun-1c-debris",
        "lat": 38.94495355912639,
        "lon": -122.00549238356174,
        "alt_km": 932.6591643426909,
        "timestamp": "2025-12-21T09:37:22.930861+00:00",
        "meta_object_name": "FENGYUN 1C DEB",
        "meta_object_id": "1999-025ADV",
        "meta_epoch": "2025-12-20T22:57:01.150848",
        "meta_mean_motion": 13.5924348,
        "meta_eccentricity": 0.0283074,
        "meta_inclination": 98.6212,
        "meta_ra_of_asc_node": 244.6453,
        "meta_arg_of_pericenter": 338.5903,
        "meta_mean_anomaly": 43.2684,
        "meta_ephemeris_type": 0,
        "meta_classification_type": "U",
        "meta_norad_cat_id": 30406,
        "meta_element_set_no": 999,
        "meta_rev_at_epoch": 93278,
        "meta_bstar": 0.0016506,
        "meta_mean_motion_dot": 1.545e-05,
        "meta_mean_motion_ddot": 0,
        "tle_line1": "1 30406U 99025ADV 25354.95626332  .00001545  00000+0  16506-2 0  9997",
        "tle_line2": "2 30406  98.6212 244.6453 0283074 338.5903  43.2684 13.59243480932781"
      },
      "geometry": {
        "type": "Point",
        "coordinates": [
          -122.00549238356174,
          38.94495355912639
        ]
      }
    },
    {
      "type": "Feature",
      "properties": {
        "norad_id": 30409,
        "name": "FENGYUN 1C DEB",
        "group": "fengyun-1c-debris",
        "lat": 80.8721084147507,
        "lon": -85.88993685420263,
        "alt_km": 903.7922200289022,
        "timestamp": "2025-12-21T09:37:22.930871+00:00",
        "meta_object_name": "FENGYUN 1C DEB",
        "meta_object_id": "1999-025ADY",
        "meta_epoch": "2025-12-19T23:18:48.362976",
        "meta_mean_motion": 14.03755513,
        "meta_eccentricity": 0.0167704,
        "meta_inclination": 98.4735,
        "meta_ra_of_asc_node": 340.8701,
        "meta_arg_of_pericenter": 345.2506,
        "meta_mean_anomaly": 79.1896,
        "meta_ephemeris_type": 0,
        "meta_classification_type": "U",
        "meta_norad_cat_id": 30409,
        "meta_element_set_no": 999,
        "meta_rev_at_epoch": 96531,
        "meta_bstar": 0.00066171,
        "meta_mean_motion_dot": 1.139e-05,
        "meta_mean_motion_ddot": 0,
        "tle_line1": "1 30409U 99025ADY 25353.97139309  .00001139  00000+0  66171-3 0  9997",
        "tle_line2": "2 30409  98.4735 340.8701 0167704 345.2506  79.1896 14.03755513965315"
      },
      "geometry": {
        "type": "Point",
        "coordinates": [
          -85.88993685420263,
          80.8721084147507
        ]
      }
    },
    {
      "type": "Feature",
      "properties": {
        "norad_id": 30411,
        "name": "FENGYUN 1C DEB",
        "group": "fengyun-1c-debris",
        "lat": 70.55919368659528,
        "lon": -119.7458781470593,
        "alt_km": 772.2719338379957,
        "timestamp": "2025-12-21T09:37:22.930882+00:00",
        "meta_object_name": "FENGYUN 1C DEB",
        "meta_object_id": "1999-025AEA",
        "meta_epoch": "2025-12-20T17:55:57.409536",
        "meta_mean_motion": 14.0768999,
        "meta_eccentricity": 0.01233574,
        "meta_inclination": 98.5821,
        "meta_ra_of_asc_node": 264.9637,
        "meta_arg_of_pericenter": 84.0478,
        "meta_mean_anomaly": 277.4735,
        "meta_ephemeris_type": 0,
        "meta_classification_type": "U",
        "meta_norad_cat_id": 30411,
        "meta_element_set_no": 999,
        "meta_rev_at_epoch": 96096,
        "meta_bstar": 0.0012987114,
        "meta_mean_motion_dot": 2.314e-05,
        "meta_mean_motion_ddot": 0,
        "tle_line1": "1 30411U 99025AEA 25354.74719224  .00002314  00000+0  12987-2 0  9997",
        "tle_line2": "2 30411  98.5821 264.9637 0123357  84.0478 277.4735 14.07689990960961"
      },
      "geometry": {
        "type": "Point",
        "coordinates": [
          -119.7458781470593,
          70.55919368659528
        ]
      }
    },
    {
      "type": "Feature",
      "properties": {
        "norad_id": 30413,
        "name": "FENGYUN 1C DEB",
        "group": "fengyun-1c-debris",
        "lat": 14.922629855558789,
        "lon": 54.91232079508385,
        "alt_km": 755.7265851659695,
        "timestamp": "2025-12-21T09:37:22.930892+00:00",
        "meta_object_name": "FENGYUN 1C DEB",
        "meta_object_id": "1999-025AEC",
        "meta_epoch": "2025-12-21T04:25:24.817728",
        "meta_mean_motion": 14.32617057,
        "meta_eccentricity": 0.0044526,
        "meta_inclination": 102.0626,
        "meta_ra_of_asc_node": 231.345,
        "meta_arg_of_pericenter": 194.137,
        "meta_mean_anomaly": 293.9643,
        "meta_ephemeris_type": 0,
        "meta_classification_type": "U",
        "meta_norad_cat_id": 30413,
        "meta_element_set_no": 999,
        "meta_rev_at_epoch": 97260,
        "meta_bstar": 0.0013713,
        "meta_mean_motion_dot": 3.694e-05,
        "meta_mean_motion_ddot": 0,
        "tle_line1": "1 30413U 99025AEC 25355.18431502  .00003694  00000+0  13713-2 0  9998",
        "tle_line2": "2 30413 102.0626 231.3450 0044526 194.1370 293.9643 14.32617057972600"
      },
      "geometry": {
        "type": "Point",
        "coordinates": [
          54.91232079508385,
          14.922629855558789
        ]
      }
    },
    {
      "type": "Feature",
      "properties": {
        "norad_id": 30414,
        "name": "FENGYUN 1C DEB",
        "group": "fengyun-1c-debris",
        "lat": -57.4107934388841,
        "lon": 167.57191929050347,
        "alt_km": 815.1431870873375,
        "timestamp": "2025-12-21T09:37:22.930902+00:00",
        "meta_object_name": "FENGYUN 1C DEB",
        "meta_object_id": "1999-025AED",
        "meta_epoch": "2025-12-20T22:10:42.867264",
        "meta_mean_motion": 14.34257854,
        "meta_eccentricity": 0.0058073,
        "meta_inclination": 99.08,
        "meta_ra_of_asc_node": 152.5842,
        "meta_arg_of_pericenter": 165.2963,
        "meta_mean_anomaly": 194.9926,
        "meta_ephemeris_type": 0,
        "meta_classification_type": "U",
        "meta_norad_cat_id": 30414,
        "meta_element_set_no": 999,
        "meta_rev_at_epoch": 97204,
        "meta_bstar": 0.0015957,
        "meta_mean_motion_dot": 4.518e-05,
        "meta_mean_motion_ddot": 0,
        "tle_line1": "1 30414U 99025AED 25354.92410726  .00004518  00000+0  15957-2 0  9993",
        "tle_line2": "2 30414  99.0800 152.5842 0058073 165.2963 194.9926 14.34257854972047"
      },
      "geometry": {
        "type": "Point",
        "coordinates": [
          167.57191929050347,
          -57.4107934388841
        ]
      }
    },
    {
      "type": "Feature",
      "properties": {
        "norad_id": 30415,
        "name": "FENGYUN 1C DEB",
        "group": "fengyun-1c-debris",
        "lat": 29.733925695286327,
        "lon": -118.76751532555741,
        "alt_km": 1020.1994130098201,
        "timestamp": "2025-12-21T09:37:22.930912+00:00",
        "meta_object_name": "FENGYUN 1C DEB",
        "meta_object_id": "1999-025AEE",
        "meta_epoch": "2025-12-19T10:11:45.140064",
        "meta_mean_motion": 13.68954565,
        "meta_eccentricity": 0.023966,
        "meta_inclination": 99.6456,
        "meta_ra_of_asc_node": 53.6804,
        "meta_arg_of_pericenter": 252.151,
        "meta_mean_anomaly": 246.4978,
        "meta_ephemeris_type": 0,
        "meta_classification_type": "U",
        "meta_norad_cat_id": 30415,
        "meta_element_set_no": 999,
        "meta_rev_at_epoch": 93969,
        "meta_bstar": 0.0011757,
        "meta_mean_motion_dot": 1.194e-05,
        "meta_mean_motion_ddot": 0,
        "tle_line1": "1 30415U 99025AEE 25353.42482801  .00001194  00000+0  11757-2 0  9992",
        "tle_line2": "2 30415  99.6456  53.6804 0239660 252.1510 246.4978 13.68954565939690"
      },
      "geometry": {
        "type": "Point",
        "coordinates": [
          -118.76751532555741,
          29.733925695286327
        ]
      }
    }
  ]
}